ONEWEB-0628             
1 55169U 23004AF  25079.56418473 -.00000749  00000+0 -21177-2 0  9997
2 55169  87.8806  80.9194 0001827 110.1877 249.9449 13.12442260108532
ONEWEB-0629             
1 55170U 23004AG  25079.54675217  .00000066  00000+0  13619-3 0  9991
2 55170  87.9028  96.2248 0002198  98.5394 261.5987 13.17651463107848
ONEWEB-0631             
1 55171U 23004AH  25079.51130467  .00000075  00000+0  15822-3 0  9990
2 55171  87.9076  65.6227 0001361  75.5509 284.5774 13.18688622109886
ONEWEB-0709             
1 55172U 23004AJ  25079.54375096  .00000475  00000+0  13052-2 0  9999
2 55172  87.8810 111.5338 0001593  63.7277 296.4014 13.11414611106417
ONEWEB-0710             
1 55173U 23004AK  25079.56111450  .00000103  00000+0  23309-3 0  9999
2 55173  87.9000  96.2459 0001827  94.6795 265.4545 13.17649532107842
ONEWEB-0711             
1 55174U 23004AL  25079.51492471  .00000029  00000+0  46024-4 0  9997
2 55174  87.8810 111.5082 0001670 117.7075 242.4223 13.11417479106370
ONEWEB-0713             
1 55175U 23004AM  25079.53358320  .00000566  00000+0  15612-2 0  9997
2 55175  87.8813 111.5124 0001840 105.3596 254.7735 13.11415683106369
ONEWEB-0715             
1 55176U 23004AN  25079.52847313  .00000580  00000+0  15997-2 0  9994
2 55176  87.8811 111.5136 0001609  91.6284 268.5028 13.11420346106400
